[{"OBJECT_NAME":"STARLINK-33924","OBJECT_ID":"2025-112D","EPOCH":"2026-03-09T16:27:06.898464","MEAN_MOTION":15.0565016,"ECCENTRICITY":4.835e-5,"INCLINATION":97.6041,"RA_OF_ASC_NODE":121.4493,"ARG_OF_PERICENTER":90.2285,"MEAN_ANOMALY":269.8997,"EPHEMERIS_TYPE":0,"CLASSIFICATION_TYPE":"U","NORAD_CAT_ID":64149,"ELEMENT_SET_NO":999,"REV_AT_EPOCH":4330,"BSTAR":0.00025469218,"MEAN_MOTION_DOT":3.616e-5,"MEAN_MOTION_DDOT":0},{"OBJECT_NAME":"PSLV DEB","OBJECT_ID":"2001-049CY","EPOCH":"2026-03-09T18:20:37.296384","MEAN_MOTION":15.08389698,"ECCENTRICITY":0.00190632,"INCLINATION":97.9861,"RA_OF_ASC_NODE":156.2845,"ARG_OF_PERICENTER":340.3269,"MEAN_ANOMALY":19.722,"EPHEMERIS_TYPE":0,"CLASSIFICATION_TYPE":"U","NORAD_CAT_ID":27152,"ELEMENT_SET_NO":999,"REV_AT_EPOCH":30598,"BSTAR":0.00053695108,"MEAN_MOTION_DOT":8.318e-5,"MEAN_MOTION_DDOT":0}]
